{
  "type": "FeatureCollection",
  "name": "NAVAREA",
  "features": [
    {
      "type": "Feature",
      "properties": {
        "OBJECTID": 1,
        "Id": 0,
        "NAV_name": "IV"
      },
      "geometry": {
        "type": "MultiPolygon",
        "coordinates": [
          [
            [
              [-102.000000000253891, 66.999999999816325, 0.0],
              [-34.997128589651687, 66.997038492803668, 0.0],
              [-35.004963134234004, 6.995929794974121, 0.0],
              [-48.999273390406756, 6.997139626819799, 0.0],
              [-51.770554630210874, 4.500000000043127, 0.0],
              [-76.238294092262663, 6.999858561500134, 0.0],
              [-78.734297148664126, 9.144861187828159, 0.0],
              [-79.319297864853652, 9.378861473944239, 0.0],
              [-81.659300730511063, 8.364860232309246, 0.0],
              [-84.302336052594299, 9.94696912188861, 0.0],
              [-86.284289281054654, 13.910875579708639, 0.0],
              [-102.000000000253891, 21.039875752746646, 0.0],
              [-102.000000000253891, 66.999999999816325, 0.0]
            ]
          ]
        ]
      }
    },
    {
      "type": "Feature",
      "properties": {
        "OBJECTID": 3,
        "Id": 0,
        "NAV_name": "XVI"
      },
      "geometry": {
        "type": "MultiPolygon",
        "coordinates": [
          [
            [
              [-119.99999999993679, -3.39999999958286, 0.0],
              [-80.000000000441617, -3.39999999958286, 0.0],
              [-68.859863617014241, -18.350000000201305, 0.0],
              [-119.99999999993679, -18.350000000201305, 0.0],
              [-119.99999999993679, -3.39999999958286, 0.0]
            ]
          ]
        ]
      }
    },
    {
      "type": "Feature",
      "properties": {
        "OBJECTID": 4,
        "Id": 0,
        "NAV_name": "XV"
      },
      "geometry": {
        "type": "MultiPolygon",
        "coordinates": [
          [
            [
              [-119.999999999936762, -18.350000000201309, 0.0],
              [-68.859863617014256, -18.350000000201309, 0.0],
              [-66.061476606201609, -31.628061370767149, 0.0],
              [-71.45096270070033, -51.216770442858348, 0.0],
              [-66.415999999923145, -55.120999999724191, 0.0],
              [-65.726600000282332, -55.381600000249009, 0.0],
              [-65.725999999604042, -56.380000000271231, 0.0],
              [-67.259999999867702, -56.380000000271231, 0.0],
              [-67.266999999687158, -89.999999999865764, 0.0],
              [-119.999999999936762, -89.999999999865764, 0.0],
              [-119.999999999936762, -18.350000000201309, 0.0]
            ]
          ]
        ]
      }
    },
    {
      "type": "Feature",
      "properties": {
        "OBJECTID": 5,
        "Id": 0,
        "NAV_name": "XIV"
      },
      "geometry": {
        "type": "MultiPolygon",
        "coordinates": [
          [
            [
              [-119.999999999936762, -89.999999999865764, 0.0],
              [-180.0, -89.999999999865764, 0.0],
              [-180.0, 0.00000000034724, 0.0],
              [-119.999999999936762, 0.00000000034724, 0.0],
              [-119.999999999936762, -89.999999999865764, 0.0]
            ]
          ]
        ]
      }
    },
    {
      "type": "Feature",
      "properties": {
        "OBJECTID": 6,
        "Id": 0,
        "NAV_name": "V"
      },
      "geometry": {
        "type": "MultiPolygon",
        "coordinates": [
          [
            [
              [-51.770554630210874, 4.500000000043127, 0.0],
              [-49.023388587415319, 6.999999999674326, 0.0],
              [-34.999999999885482, 6.999999999674326, 0.0],
              [-20.000000000299643, 6.999999999674326, 0.0],
              [-20.000000000299643, -35.833300000324414, 0.0],
              [-48.000000000305953, -35.832999999985269, 0.0],
              [-53.37894042885182, -33.749999999620222, 0.0],
              [-49.846246973460183, -22.898910411770164, 0.0],
              [-37.194915254247114, -7.717312349074206, 0.0],
              [-52.882566585639644, -1.391646489467669, 0.0],
              [-51.770554630210874, 4.500000000043127, 0.0]
            ]
          ]
        ]
      }
    },
    {
      "type": "Feature",
      "properties": {
        "OBJECTID": 7,
        "Id": 0,
        "NAV_name": "VI"
      },
      "geometry": {
        "type": "MultiPolygon",
        "coordinates": [
          [
            [
              [-53.37894042885182, -33.749999999620222, 0.0],
              [-48.000000000305953, -35.832999999985269, 0.0],
              [-20.000000000299643, -35.833300000324414, 0.0],
              [-20.000000000299643, -89.999999999865764, 0.0],
              [-67.266999999687158, -89.999999999865764, 0.0],
              [-67.259999999867702, -56.380000000271231, 0.0],
              [-65.725999999604042, -56.380000000271231, 0.0],
              [-65.726600000282332, -55.381600000249009, 0.0],
              [-66.415999999923145, -55.120999999724191, 0.0],
              [-71.45096270070033, -51.216770442858348, 0.0],
              [-66.061476606201609, -31.628061370767149, 0.0],
              [-53.37894042885182, -33.749999999620222, 0.0]
            ]
          ]
        ]
      }
    },
    {
      "type": "Feature",
      "properties": {
        "OBJECTID": 8,
        "Id": 0,
        "NAV_name": "VII"
      },
      "geometry": {
        "type": "MultiPolygon",
        "coordinates": [
          [
            [
              [-20.000000000299643, -5.999999999846825, 0.0],
              [14.670093893809746, -5.999999999846825, 0.0],
              [18.749999999829537, -6.726191817688663, 0.0],
              [18.749999999829537, -29.371178038797623, 0.0],
              [38.070122732046926, -10.500000000442034, 0.0],
              [55.000000000327518, -10.500000000442034, 0.0],
              [55.000000000327518, -29.999999999723762, 0.0],
              [80.000000000236795, -29.999999999723762, 0.0],
              [80.000000000236795, -89.999999999865764, 0.0],
              [-20.000000000299643, -89.999999999865764, 0.0],
              [-20.000000000299643, -5.999999999846825, 0.0]
            ]
          ]
        ]
      }
    },
    {
      "type": "Feature",
      "properties": {
        "OBJECTID": 9,
        "Id": 0,
        "NAV_name": "VIII"
      },
      "geometry": {
        "type": "MultiPolygon",
        "coordinates": [
          [
            [
              [38.070122732046926, -10.500000000442034, 0.0],
              [36.510120809317918, 5.846220503885557, 0.0],
              [50.849999999698667, 11.999999999836046, 0.0],
              [62.999999999686949, 11.999999999836046, 0.0],
              [68.198890276400888, 23.851005734932436, 0.0],
              [84.193703630468633, 25.986562141669438, 0.0],
              [103.083202854156653, 20.276238287105421, 0.0],
              [99.744398130025516, 13.516449559826727, 0.0],
              [98.353144500945206, 7.970758009726696, 0.0],
              [94.999999999822634, 5.999999999641982, 0.0],
              [94.999999999822634, -29.999999999723762, 0.0],
              [55.000000000327518, -29.999999999723762, 0.0],
              [55.000000000327518, -10.500000000442034, 0.0],
              [38.070122732046926, -10.500000000442034, 0.0]
            ]
          ]
        ]
      }
    },
    {
      "type": "Feature",
      "properties": {
        "OBJECTID": 10,
        "Id": 0,
        "NAV_name": "IX"
      },
      "geometry": {
        "type": "MultiPolygon",
        "coordinates": [
          [
            [
              [68.198890276400888, 23.851005734932436, 0.0],
              [62.999999999686949, 11.999999999836046, 0.0],
              [50.849999999698667, 11.999999999836046, 0.0],
              [36.510120809317918, 5.846220503885557, 0.0],
              [31.590904013929244, 30.314882860096354, 0.0],
              [49.619479431499904, 31.528553524809404, 0.0],
              [66.734990826628632, 25.894726618093237, 0.0],
              [68.198890276400888, 23.851005734932436, 0.0]
            ]
          ]
        ]
      }
    },
    {
      "type": "Feature",
      "properties": {
        "OBJECTID": 11,
        "Id": 0,
        "NAV_name": "X"
      },
      "geometry": {
        "type": "MultiPolygon",
        "coordinates": [
          [
            [
              [80.00000000023681, -89.999999999865736, 0.0],
              [80.00000000023681, -29.999999999723741, 0.0],
              [94.999999999822649, -29.999999999723741, 0.0],
              [94.999999999822649, -12.00000000004087, 0.0],
              [126.999999999958277, -12.00000000004087, 0.0],
              [126.999999999958277, -9.999999999976183, 0.0],
              [141.000000000411092, -9.999999999976183, 0.0],
              [141.000000000411092, 0.000000000347256, 0.0],
              [169.999999999550482, 0.000000000347256, 0.0],
              [169.999999999550482, -28.999999999691397, 0.0],
              [160.000000000126306, -45.0000000002089, 0.0],
              [160.000000000126306, -89.999999999865736, 0.0],
              [80.00000000023681, -89.999999999865736, 0.0]
            ]
          ]
        ]
      }
    },
    {
      "type": "Feature",
      "properties": {
        "OBJECTID": 12,
        "Id": 0,
        "NAV_name": "XIV"
      },
      "geometry": {
        "type": "MultiPolygon",
        "coordinates": [
          [
            [
              [160.000000000126306, -89.999999999865736, 0.0],
              [160.000000000126306, -45.0000000002089, 0.0],
              [169.999999999550482, -28.999999999691397, 0.0],
              [169.999999999550482, 0.000000000347256, 0.0],
              [179.999999999873921, 0.000000000347256, 0.0],
              [179.999999999873921, -89.999999999865736, 0.0],
              [160.000000000126306, -89.999999999865736, 0.0]
            ]
          ]
        ]
      }
    },
    {
      "type": "Feature",
      "properties": {
        "OBJECTID": 13,
        "Id": 0,
        "NAV_name": "XI"
      },
      "geometry": {
        "type": "MultiPolygon",
        "coordinates": [
          [
            [
              [103.083202854156653, 20.276238287105421, 0.0],
              [118.04770731651584, 41.427073170292736, 0.0],
              [130.692183277270402, 42.291999999956062, 0.0],
              [135.000000000217085, 42.291999999956062, 0.0],
              [138.332999999948072, 45.000000000004079, 0.0],
              [179.999999999873921, 45.000000000004079, 0.0],
              [179.999999999873921, 0.00000000034724, 0.0],
              [141.000000000411148, 0.00000000034724, 0.0],
              [141.000000000411148, -9.9999999999762, 0.0],
              [126.999999999958334, -9.9999999999762, 0.0],
              [126.999999999958334, -12.00000000004089, 0.0],
              [94.999999999822634, -12.00000000004089, 0.0],
              [94.999999999822634, 5.999999999641982, 0.0],
              [98.353144500945206, 7.970758009726696, 0.0],
              [99.744398130025516, 13.516449559826727, 0.0],
              [103.083202854156653, 20.276238287105421, 0.0]
            ]
          ]
        ]
      }
    },
    {
      "type": "Feature",
      "properties": {
        "OBJECTID": 14,
        "Id": 0,
        "NAV_name": "XIII"
      },
      "geometry": {
        "type": "MultiPolygon",
        "coordinates": [
          [
            [
              [130.692183277270402, 42.291999999956062, 0.0],
              [134.437226130504428, 55.661569337632663, 0.0],
              [154.133991519723793, 66.999999999816325, 0.0],
              [179.999999999873921, 66.999999999816325, 0.0],
              [179.999999999873921, 57.499999999958717, 0.0],
              [171.99999999961517, 53.00000000026283, 0.0],
              [179.999999999873921, 50.000000000165798, 0.0],
              [179.999999999873921, 45.000000000004079, 0.0],
              [138.332999999948072, 45.000000000004079, 0.0],
              [135.000000000217085, 42.291999999956062, 0.0],
              [130.692183277270402, 42.291999999956062, 0.0]
            ]
          ]
        ]
      }
    },
    {
      "type": "Feature",
      "properties": {
        "OBJECTID": 16,
        "Id": 0,
        "NAV_name": "I"
      },
      "geometry": {
        "type": "MultiPolygon",
        "coordinates": [
          [
            [
              [-34.999999999885482, 48.449999999800902, 0.0],
              [-34.999999999885482, 75.000000000075076, 0.0],
              [-4.999999999814481, 75.000000000075076, 0.0],
              [-4.999999999814481, 64.999999999751637, 0.0],
              [17.061854566977772, 64.999999999751637, 0.0],
              [30.00000000041824, 69.155117113948904, 0.0],
              [32.832951859874491, 59.875031586361096, 0.0],
              [42.291309182141966, 48.576252728524516, 0.0],
              [28.531618584160089, 48.449999999800902, 0.0],
              [-34.999999999885482, 48.449999999800902, 0.0]
            ]
          ]
        ]
      }
    },
    {
      "type": "Feature",
      "properties": {
        "OBJECTID": 17,
        "Id": 0,
        "NAV_name": "II"
      },
      "geometry": {
        "type": "MultiPolygon",
        "coordinates": [
          [
            [
              [-34.999999999885482, 48.449999999800902, 0.0],
              [0.327684772064982, 48.449999999800902, 0.0],
              [0.759648454779029, 43.784384422799619, 0.0],
              [-5.503085273789284, 36.356680147525182, 0.0],
              [-5.503824937380078, 34.821138016825344, 0.0],
              [-11.892251815820966, 22.898910411565321, 0.0],
              [-7.84382566624835, 9.488498789307384, 0.0],
              [13.070613397740221, 5.015643942831005, 0.0],
              [14.670093893809746, -5.999999999846825, 0.0],
              [-20.000000000299643, -5.999999999846825, 0.0],
              [-20.000000000299643, 6.999999999674326, 0.0],
              [-34.999999999885482, 6.999999999674326, 0.0],
              [-34.999999999885482, 48.449999999800902, 0.0]
            ]
          ]
        ]
      }
    },
    {
      "type": "Feature",
      "properties": {
        "OBJECTID": 18,
        "Id": 0,
        "NAV_name": "III"
      },
      "geometry": {
        "type": "MultiPolygon",
        "coordinates": [
          [
            [
              [0.327684772064982, 48.427994007029355, 0.0],
              [28.531618584160089, 48.449999999800902, 0.0],
              [42.291309182141966, 48.576252728524516, 0.0],
              [43.003345646061604, 41.587307022911759, 0.0],
              [37.657868204218545, 31.764992222783185, 0.0],
              [31.590904013929244, 30.314882860096354, 0.0],
              [18.496699567788752, 28.350834556773943, 0.0],
              [-5.503824937380078, 34.821138016825344, 0.0],
              [-5.503085273789284, 36.356680147525182, 0.0],
              [0.759648454779029, 43.784384422799619, 0.0],
              [0.327684772064982, 48.427994007029355, 0.0]
            ]
          ]
        ]
      }
    },
    {
      "type": "Feature",
      "properties": {
        "OBJECTID": 19,
        "Id": 0,
        "NAV_name": "XII"
      },
      "geometry": {
        "type": "MultiPolygon",
        "coordinates": [
          [
            [
              [179.999999999873921, 57.499999999958717, 0.0],
              [179.999999999873921, 50.000000000165798, 0.0],
              [171.99999999961517, 53.00000000026283, 0.0],
              [179.999999999873921, 57.499999999958717, 0.0]
            ]
          ]
        ]
      }
    },
    {
      "type": "Feature",
      "properties": {
        "OBJECTID": 20,
        "Id": 0,
        "NAV_name": "XVII"
      },
      "geometry": {
        "type": "MultiPolygon",
        "coordinates": [
          [
            [
              [-119.999999999936762, 90.0, 0.0],
              [-119.999999999936762, 66.999999999816325, 0.0],
              [-168.967000000188648, 66.999999999816325, 0.0],
              [-168.967000000188648, 90.0, 0.0],
              [-119.999999999936762, 90.0, 0.0]
            ]
          ]
        ]
      }
    },
    {
      "type": "Feature",
      "properties": {
        "OBJECTID": 21,
        "Id": 0,
        "NAV_name": "XVIII"
      },
      "geometry": {
        "type": "MultiPolygon",
        "coordinates": [
          [
            [
              [-34.999999999885482, 90.0, 0.0],
              [-34.999999999885482, 66.999999999816325, 0.0],
              [-119.999999999936762, 66.999999999816325, 0.0],
              [-119.999999999936762, 90.0, 0.0],
              [-34.999999999885482, 90.0, 0.0]
            ]
          ]
        ]
      }
    },
    {
      "type": "Feature",
      "properties": {
        "OBJECTID": 22,
        "Id": 0,
        "NAV_name": "XIX"
      },
      "geometry": {
        "type": "MultiPolygon",
        "coordinates": [
          [
            [
              [30.00000000041824, 90.0, 0.0],
              [30.00000000041824, 70.9999999999457, 0.0],
              [31.71699999981637, 70.367000000212116, 0.0],
              [30.818999999979781, 69.795000000190015, 0.0],
              [30.00000000041824, 69.155117113948904, 0.0],
              [24.570092393431281, 67.345526254898772, 0.0],
              [17.061854566977772, 64.999999999751637, 0.0],
              [-4.999999999814481, 64.999999999751637, 0.0],
              [-4.999999999814481, 75.000000000075076, 0.0],
              [-34.999999999885482, 75.000000000075076, 0.0],
              [-34.999999999885482, 90.0, 0.0],
              [30.00000000041824, 90.0, 0.0]
            ]
          ]
        ]
      }
    },
    {
      "type": "Feature",
      "properties": {
        "OBJECTID": 23,
        "Id": 0,
        "NAV_name": "XX"
      },
      "geometry": {
        "type": "MultiPolygon",
        "coordinates": [
          [
            [
              [124.999999999893646, 90.0, 0.0],
              [124.999999999893646, 71.41517085015002, 0.0],
              [98.966095024350793, 72.868062537129745, 0.0],
              [86.697231886258066, 68.509387475291248, 0.0],
              [74.266936338500926, 64.312144822217846, 0.0],
              [61.675208381079358, 66.572198558418961, 0.0],
              [43.191197469557714, 63.262834159848822, 0.0],
              [32.832951859874491, 59.875031586361096, 0.0],
              [30.00000000041824, 69.155117113948904, 0.0],
              [30.818999999979781, 69.795000000190015, 0.0],
              [31.100000000184021, 69.97500000042966, 0.0],
              [31.71699999981637, 70.367000000212116, 0.0],
              [30.00000000041824, 70.9999999999457, 0.0],
              [30.00000000041824, 90.0, 0.0],
              [124.999999999893646, 90.0, 0.0]
            ]
          ]
        ]
      }
    },
    {
      "type": "Feature",
      "properties": {
        "OBJECTID": 24,
        "Id": 0,
        "NAV_name": "XXI"
      },
      "geometry": {
        "type": "MultiPolygon",
        "coordinates": [
          [
            [
              [179.999999999873921, 66.999999999816325, 0.0],
              [154.133991519723793, 66.999999999816325, 0.0],
              [132.162200906538828, 68.997946149814226, 0.0],
              [124.999999999893646, 71.41517085015002, 0.0],
              [124.999999999893646, 90.0, 0.0],
              [179.999999999873921, 90.0, 0.0],
              [179.999999999873921, 66.999999999816325, 0.0]
            ]
          ]
        ]
      }
    },
    {
      "type": "Feature",
      "properties": {
        "OBJECTID": 25,
        "Id": 0,
        "NAV_name": "XXI"
      },
      "geometry": {
        "type": "MultiPolygon",
        "coordinates": [
          [
            [
              [-168.967000000188648, 90.0, 0.0],
              [-168.967000000188648, 66.999999999816325, 0.0],
              [-180.0, 66.999999999816325, 0.0],
              [-180.0, 90.0, 0.0],
              [-168.967000000188648, 90.0, 0.0]
            ]
          ]
        ]
      }
    },
    {
      "type": "Feature",
      "properties": {
        "OBJECTID": 26,
        "Id": 0,
        "NAV_name": "XII"
      },
      "geometry": {
        "type": "MultiPolygon",
        "coordinates": [
          [
            [
              [-180.0, 57.499999999958732, 0.0],
              [-176.664856959119419, 59.101399297603848, 0.0],
              [-173.696505048219535, 60.641581893102682, 0.0],
              [-171.316222855584698, 62.181764487702196, 0.0],
              [-169.404348047099234, 64.15369734330767, 0.0],
              [-168.606862879180227, 66.999999999816339, 0.0],
              [-102.000000000253863, 66.999999999816339, 0.0],
              [-102.000000000253863, 21.039875752746639, 0.0],
              [-86.284289281054669, 13.910875579708659, 0.0],
              [-84.302336052594285, 9.946969121888628, 0.0],
              [-81.659300730511063, 8.36486023230924, 0.0],
              [-79.314042026365598, 9.381382395900175, 0.0],
              [-78.734139101810683, 9.149421226258085, 0.0],
              [-76.238294092262663, 6.999858561500162, 0.0],
              [-74.757981038791968, 2.220581795707801, 0.0],
              [-79.996641433759805, -3.401911145230031, 0.0],
              [-119.996229257781124, -3.401911145230031, 0.0],
              [-120.000046897781942, 0.000187265274064, 0.0],
              [-180.0, 0.004872578363347, 0.0],
              [-180.0, 57.499999999958732, 0.0]
            ]
          ]
        ]
      }
    },
    {
      "type": "Feature",
      "properties": {
        "OBJECTID": 27,
        "Id": 0,
        "NAV_name": "XIII"
      },
      "geometry": {
        "type": "MultiPolygon",
        "coordinates": [
          [
            [
              [-180.0, 66.999999999816325, 0.0],
              [-168.606862879180227, 66.999999999816325, 0.0],
              [-169.404348047099234, 64.15369734330767, 0.0],
              [-171.316222855584698, 62.181764487702182, 0.0],
              [-173.696505048219535, 60.641581893102682, 0.0],
              [-176.664856959119419, 59.101399297603855, 0.0],
              [-180.0, 57.499999999958717, 0.0],
              [-180.0, 66.999999999816325, 0.0]
            ]
          ]
        ]
      }
    },
    {
        "type": "Feature",
        "properties": {
          "OBJECTID": 28,
          "Id": 0,
          "NAV_name": "XXII"
        },
        "geometry": {
          "type": "MultiPolygon",
          "coordinates": [
            [
              [
                [-76.238294092262663, 6.999858561500134, 0.0],
                [-51.770554630210874, 4.500000000043127, 0.0],
                [-52.882566585639644, -1.391646489467669, 0.0],
                [-37.194915254247114, -7.717312349074206, 0.0],
                [-49.846246973460183, -22.898910411770164, 0.0],
                [-53.37894042885182, -33.749999999620222, 0.0],
                [-66.061476606201609, -31.628061370767149, 0.0],
                [-68.859863617014241, -18.350000000201305, 0.0],
                [-80.000000000441617, -3.39999999958286, 0.0],
                [-74.757981038791968, 2.220581795707801, 0.0]
              ]
            ]
          ]
        }
      },
      {
        "type": "Feature",
        "properties": {
          "OBJECTID": 29,
          "Id": 0,
          "NAV_name": "XXIII"
        },
        "geometry": {
          "type": "MultiPolygon",
          "coordinates": [
            [
              [
                [-5.503824937380078, 34.821138016825344, 0.0],
                [18.496699567788752, 28.350834556773943, 0.0],
                [31.590904013929244, 30.314882860096354, 0.0],
                [36.510120809317918, 5.846220503885557, 0.0],
                [38.070122732046926, -10.500000000442034, 0.0],
                [18.749999999829537, -29.371178038797623, 0.0],
                [18.749999999829537, -6.726191817688663, 0.0],
                [14.670093893809746, -5.999999999846825, 0.0],
                [13.070613397740221, 5.015643942831005, 0.0],
                [-7.84382566624835, 9.488498789307384, 0.0],
                [-11.892251815820966, 22.898910411565321, 0.0]
              ]
            ]
          ]
        }
      },
      {
        "type": "Feature",
        "properties": {
          "OBJECTID": 30,
          "Id": 0,
          "NAV_name": "XXIV"
        },
        "geometry": {
          "type": "MultiPolygon",
          "coordinates": [
            [
              [
                [31.590904013929244, 30.314882860096354, 0.0],
                [49.619479431499904, 31.528553524809404, 0.0],
                [66.734990826628632, 25.894726618093237, 0.0],
                [68.198890276400888, 23.851005734932436, 0.0],
                [84.193703630468633, 25.986562141669438, 0.0],
                [103.083202854156653, 20.276238287105421, 0.0],
                [118.04770731651584, 41.427073170292736, 0.0],
                [130.692183277270402, 42.291999999956062, 0.0],
                [134.437226130504428, 55.661569337632663, 0.0],
                [154.133991519723793, 66.999999999816325, 0.0],
                [132.162200906538828, 68.997946149814226, 0.0],
                [124.999999999893646, 71.41517085015002, 0.0],
                [98.966095024350793, 72.868062537129745, 0.0],
                [86.697231886258066, 68.509387475291248, 0.0],
                [74.266936338500926, 64.312144822217846, 0.0],
                [61.675208381079358, 66.572198558418961, 0.0],
                [43.191197469557714, 63.262834159848822, 0.0],
                [32.832951859874491, 59.875031586361096, 0.0],            
                [42.291309182141966, 48.576252728524516, 0.0],
                [43.003345646061604, 41.587307022911759, 0.0],
                [37.657868204218545, 31.764992222783185, 0.0]
              ]
            ]
          ]
        }
      }
    ]
}
